PLEIADES NEO 3          
1 48268U 21034A   26189.52587669  .00000188  00000+0  30468-4 0  9993
2 48268  97.8935 263.9859 0001335  91.8581 268.2784 14.81673697280815
PLEIADES NEO 4          
1 49070U 21073E   26188.41157615 -.00000002  00000+0  63105-5 0  9990
2 49070  97.8931 262.8836 0001292  91.3078 268.8283 14.81677754264364
