{"fetched_at":"2026-07-08T17:59:59.962Z","source":"https://celestrak.org/NORAD/elements/gp.php?NAME=PLEIADES&FORMAT=JSON","constellation":"pleiades-neo","records":[{"OBJECT_NAME":"PLEIADES NEO 3","OBJECT_ID":"2021-034A","EPOCH":"2026-07-08T12:37:15.746016","CLASSIFICATION_TYPE":"U","MEAN_MOTION":14.81673697,"ECCENTRICITY":0.0001335,"INCLINATION":97.8935,"RA_OF_ASC_NODE":263.9859,"ARG_OF_PERICENTER":91.8581,"MEAN_ANOMALY":268.2784,"EPHEMERIS_TYPE":0,"NORAD_CAT_ID":48268,"ELEMENT_SET_NO":999,"REV_AT_EPOCH":28081,"BSTAR":0.000030468,"MEAN_MOTION_DOT":0.00000188,"MEAN_MOTION_DDOT":0},{"OBJECT_NAME":"PLEIADES NEO 4","OBJECT_ID":"2021-073E","EPOCH":"2026-07-07T09:52:40.179360","CLASSIFICATION_TYPE":"U","MEAN_MOTION":14.81677754,"ECCENTRICITY":0.00012925,"INCLINATION":97.8931,"RA_OF_ASC_NODE":262.8836,"ARG_OF_PERICENTER":91.3078,"MEAN_ANOMALY":268.8283,"EPHEMERIS_TYPE":0,"NORAD_CAT_ID":49070,"ELEMENT_SET_NO":999,"REV_AT_EPOCH":26436,"BSTAR":0.000006310521,"MEAN_MOTION_DOT":-2e-8,"MEAN_MOTION_DDOT":0}]}
